IRIDIUM 116             
1 43072U 17083C   25267.88532336  .00000188  00000+0  59983-4 0  9999
2 43072  86.3916  72.9022 0002142  83.0018 277.1422 14.34219152406144
IRIDIUM 130             
1 43073U 17083D   25267.85360138  .00000115  00000+0  33977-4 0  9991
2 43073  86.3924  73.1653 0002379  83.7887 276.3580 14.34218296406087
IRIDIUM 151             
1 43074U 17083E   25267.54915526  .00000097  00000+0  27491-4 0  9998
2 43074  86.3917  73.0948 0002112  83.9138 276.2298 14.34218298406067
IRIDIUM 134             
1 43075U 17083F   25267.86628508  .00000245  00000+0  80535-4 0  9998
2 43075  86.3923  72.9664 0002349  85.7944 274.3520 14.34218115406071
IRIDIUM 137             
1 43076U 17083G   25267.94873815  .00000094  00000+0  26677-4 0  9990
2 43076  86.3920  73.0194 0001822  73.4076 286.7320 14.34218433406151
IRIDIUM 141             
1 43077U 17083H   25267.87262790  .00000012  00000+0 -27697-5 0  9992
2 43077  86.3916  72.8969 0002049  93.5140 266.6290 14.34217761406146
IRIDIUM 153             
1 43078U 17083J   25267.40619583  .00000086  00000+0  23774-4 0  9999
2 43078  86.3976  41.5560 0002173 103.9436 256.2001 14.34218287407189
IRIDIUM 131             
1 43079U 17083K   25267.85994331  .00000117  00000+0  34568-4 0  9994
2 43079  86.3922  73.0707 0001958  92.1997 267.9423 14.34218231406078
